HULIANWANG DIGUI-28     
1 63695U 25086J   26195.89447729  .00000012  00000+0 -63381-5 0  9992
2 63695  86.5021 303.5995 0002072 112.0911 248.0443 13.24410953 58520
HULIANWANG DIGUI-29     
1 63696U 25086K   26195.96250472  .00000015  00000+0  49548-6 0  9990
2 63696  86.5049 303.6922 0001931 113.7370 246.3967 13.24411301 58533
HULIANWANG DIGUI-30     
1 64283U 25121A   26195.89439519  .00000028  00000+0  31261-4 0  9991
2 64283  86.4995   4.2073 0001976  89.1353 271.0007 13.24409520 53829
HULIANWANG DIGUI-31     
1 64284U 25121B   26195.88689363  .00000037  00000+0  51877-4 0  9990
2 64284  86.5015   4.2864 0001965  89.5036 270.6323 13.24414486 53825
HULIANWANG DIGUI-32     
1 64285U 25121C   26195.95474231  .00000048  00000+0  77630-4 0  9992
2 64285  86.4956   4.0184 0001922  93.5454 266.5900 13.24410364 53831
HULIANWANG DIGUI-33     
1 64286U 25121D   26195.94719297  .00000039  00000+0  57507-4 0  9997
2 64286  86.5014   4.2495 0001979  89.9281 270.2080 13.24409956 53830
HULIANWANG DIGUI-34     
1 64287U 25121E   26195.93967593  .00000032  00000+0  39571-4 0  9995
2 64287  86.4991   4.1556 0002182  82.8120 277.3262 13.24410649 53833
HULIANWANG DIGUI-35     
1 64956U 25159A   26195.90207514  .00000030  00000+0  36785-4 0  9998
2 64956  86.4941 273.0675 0004532  65.8711 294.2896 13.24413105 46796
HULIANWANG DIGUI-36     
1 64957U 25159B   26195.89816028  .00000030  00000+0  35188-4 0  9999
2 64957  86.4960 273.1344 0001637 102.0482 258.0836 13.24408541 46794
HULIANWANG DIGUI-37     
1 64958U 25159C   26195.89059029  .00000028  00000+0  31631-4 0  9996
2 64958  86.4902 272.9246 0001783  97.9096 262.2240 13.24409269 46798
HULIANWANG DIGUI-38     
1 64959U 25159D   26195.95861922  .00000028  00000+0  32052-4 0  9995
2 64959  86.4961 273.1018 0001839  98.9177 261.2165 13.24408950 46800
HULIANWANG DIGUI-39     
1 64960U 25159E   26195.95105168  .00000045  00000+0  71496-4 0  9994
2 64960  86.4936 273.0134 0001800 101.6910 258.4426 13.24408842 46805
HULIANWANG DIGUI-40     
1 65043U 25162A   26195.98252014 -.00000123  00000+0  26833-5 0  9991
2 65043  49.9978 166.2420 0000297 313.1130  46.9717 13.29327267 47048
HULIANWANG DIGUI-41     
1 65044U 25162B   26195.89900378 -.00000113  00000+0  23674-4 0  9993
2 65044  49.9988 166.4956 0000267 321.3218  38.7635 13.29326891 47041
HULIANWANG DIGUI-42     
1 65045U 25162C   26195.96576453 -.00000117  00000+0  14796-4 0  9994
2 65045  49.9954 166.0860 0000284 313.5359  46.5489 13.29327548 47058
HULIANWANG DIGUI-43     
1 65046U 25162D   26195.95744769 -.00000117  00000+0  15273-4 0  9992
2 65046  49.9970 166.0915 0000333 310.6085  49.4758 13.29326159 47055
