{"fetched_at":"2026-07-15T06:36:07.156Z","source":"https://celestrak.org/NORAD/elements/gp.php?NAME=HULIANWANG&FORMAT=JSON","constellation":"guowang","records":[{"OBJECT_NAME":"HULIANWANG DIGUI-28","OBJECT_ID":"2025-086J","EPOCH":"2026-07-14T21:28:02.837856","CLASSIFICATION_TYPE":"U","MEAN_MOTION":13.24410953,"ECCENTRICITY":0.00020728,"INCLINATION":86.5021,"RA_OF_ASC_NODE":303.5995,"ARG_OF_PERICENTER":112.0911,"MEAN_ANOMALY":248.0443,"EPHEMERIS_TYPE":0,"NORAD_CAT_ID":63695,"ELEMENT_SET_NO":999,"REV_AT_EPOCH":5852,"BSTAR":-0.000006338143,"MEAN_MOTION_DOT":1.2e-7,"MEAN_MOTION_DDOT":0},{"OBJECT_NAME":"HULIANWANG DIGUI-29","OBJECT_ID":"2025-086K","EPOCH":"2026-07-14T23:06:00.407808","CLASSIFICATION_TYPE":"U","MEAN_MOTION":13.24411301,"ECCENTRICITY":0.00019317,"INCLINATION":86.5049,"RA_OF_ASC_NODE":303.6922,"ARG_OF_PERICENTER":113.737,"MEAN_ANOMALY":246.3967,"EPHEMERIS_TYPE":0,"NORAD_CAT_ID":63696,"ELEMENT_SET_NO":999,"REV_AT_EPOCH":5853,"BSTAR":4.95484e-7,"MEAN_MOTION_DOT":1.5e-7,"MEAN_MOTION_DDOT":0},{"OBJECT_NAME":"HULIANWANG DIGUI-30","OBJECT_ID":"2025-121A","EPOCH":"2026-07-14T21:27:55.744416","CLASSIFICATION_TYPE":"U","MEAN_MOTION":13.2440952,"ECCENTRICITY":0.00019767,"INCLINATION":86.4995,"RA_OF_ASC_NODE":4.2073,"ARG_OF_PERICENTER":89.1353,"MEAN_ANOMALY":271.0007,"EPHEMERIS_TYPE":0,"NORAD_CAT_ID":64283,"ELEMENT_SET_NO":999,"REV_AT_EPOCH":5382,"BSTAR":0.000031261362,"MEAN_MOTION_DOT":2.8e-7,"MEAN_MOTION_DDOT":0},{"OBJECT_NAME":"HULIANWANG DIGUI-31","OBJECT_ID":"2025-121B","EPOCH":"2026-07-14T21:17:07.609632","CLASSIFICATION_TYPE":"U","MEAN_MOTION":13.24414486,"ECCENTRICITY":0.00019657,"INCLINATION":86.5015,"RA_OF_ASC_NODE":4.2864,"ARG_OF_PERICENTER":89.5036,"MEAN_ANOMALY":270.6323,"EPHEMERIS_TYPE":0,"NORAD_CAT_ID":64284,"ELEMENT_SET_NO":999,"REV_AT_EPOCH":5382,"BSTAR":0.000051877041,"MEAN_MOTION_DOT":3.7e-7,"MEAN_MOTION_DDOT":0},{"OBJECT_NAME":"HULIANWANG DIGUI-32","OBJECT_ID":"2025-121C","EPOCH":"2026-07-14T22:54:49.735584","CLASSIFICATION_TYPE":"U","MEAN_MOTION":13.24410364,"ECCENTRICITY":0.00019224,"INCLINATION":86.4956,"RA_OF_ASC_NODE":4.0184,"ARG_OF_PERICENTER":93.5454,"MEAN_ANOMALY":266.59,"EPHEMERIS_TYPE":0,"NORAD_CAT_ID":64285,"ELEMENT_SET_NO":999,"REV_AT_EPOCH":5383,"BSTAR":0.000077629888,"MEAN_MOTION_DOT":4.8e-7,"MEAN_MOTION_DDOT":0},{"OBJECT_NAME":"HULIANWANG DIGUI-33","OBJECT_ID":"2025-121D","EPOCH":"2026-07-14T22:43:57.472608","CLASSIFICATION_TYPE":"U","MEAN_MOTION":13.24409956,"ECCENTRICITY":0.00019794,"INCLINATION":86.5014,"RA_OF_ASC_NODE":4.2495,"ARG_OF_PERICENTER":89.9281,"MEAN_ANOMALY":270.208,"EPHEMERIS_TYPE":0,"NORAD_CAT_ID":64286,"ELEMENT_SET_NO":999,"REV_AT_EPOCH":5383,"BSTAR":0.000057506916,"MEAN_MOTION_DOT":3.9e-7,"MEAN_MOTION_DDOT":0},{"OBJECT_NAME":"HULIANWANG DIGUI-34","OBJECT_ID":"2025-121E","EPOCH":"2026-07-14T22:33:08.000352","CLASSIFICATION_TYPE":"U","MEAN_MOTION":13.24410649,"ECCENTRICITY":0.00021827,"INCLINATION":86.4991,"RA_OF_ASC_NODE":4.1556,"ARG_OF_PERICENTER":82.812,"MEAN_ANOMALY":277.3262,"EPHEMERIS_TYPE":0,"NORAD_CAT_ID":64287,"ELEMENT_SET_NO":999,"REV_AT_EPOCH":5383,"BSTAR":0.000039570662,"MEAN_MOTION_DOT":3.2e-7,"MEAN_MOTION_DDOT":0},{"OBJECT_NAME":"HULIANWANG DIGUI-35","OBJECT_ID":"2025-159A","EPOCH":"2026-07-14T21:38:59.292096","CLASSIFICATION_TYPE":"U","MEAN_MOTION":13.24413105,"ECCENTRICITY":0.00045328,"INCLINATION":86.4941,"RA_OF_ASC_NODE":273.0675,"ARG_OF_PERICENTER":65.8711,"MEAN_ANOMALY":294.2896,"EPHEMERIS_TYPE":0,"NORAD_CAT_ID":64956,"ELEMENT_SET_NO":999,"REV_AT_EPOCH":4679,"BSTAR":0.000036784519,"MEAN_MOTION_DOT":3e-7,"MEAN_MOTION_DDOT":0},{"OBJECT_NAME":"HULIANWANG DIGUI-36","OBJECT_ID":"2025-159B","EPOCH":"2026-07-14T21:33:21.048192","CLASSIFICATION_TYPE":"U","MEAN_MOTION":13.24408541,"ECCENTRICITY":0.00016375,"INCLINATION":86.496,"RA_OF_ASC_NODE":273.1344,"ARG_OF_PERICENTER":102.0482,"MEAN_ANOMALY":258.0836,"EPHEMERIS_TYPE":0,"NORAD_CAT_ID":64957,"ELEMENT_SET_NO":999,"REV_AT_EPOCH":4679,"BSTAR":0.000035188486,"MEAN_MOTION_DOT":3e-7,"MEAN_MOTION_DDOT":0},{"OBJECT_NAME":"HULIANWANG DIGUI-37","OBJECT_ID":"2025-159C","EPOCH":"2026-07-14T21:22:27.001056","CLASSIFICATION_TYPE":"U","MEAN_MOTION":13.24409269,"ECCENTRICITY":0.00017832,"INCLINATION":86.4902,"RA_OF_ASC_NODE":272.9246,"ARG_OF_PERICENTER":97.9096,"MEAN_ANOMALY":262.224,"EPHEMERIS_TYPE":0,"NORAD_CAT_ID":64958,"ELEMENT_SET_NO":999,"REV_AT_EPOCH":4679,"BSTAR":0.000031631097,"MEAN_MOTION_DOT":2.8e-7,"MEAN_MOTION_DDOT":0},{"OBJECT_NAME":"HULIANWANG DIGUI-38","OBJECT_ID":"2025-159D","EPOCH":"2026-07-14T23:00:24.700608","CLASSIFICATION_TYPE":"U","MEAN_MOTION":13.2440895,"ECCENTRICITY":0.00018398,"INCLINATION":86.4961,"RA_OF_ASC_NODE":273.1018,"ARG_OF_PERICENTER":98.9177,"MEAN_ANOMALY":261.2165,"EPHEMERIS_TYPE":0,"NORAD_CAT_ID":64959,"ELEMENT_SET_NO":999,"REV_AT_EPOCH":4680,"BSTAR":0.000032052231,"MEAN_MOTION_DOT":2.8e-7,"MEAN_MOTION_DDOT":0},{"OBJECT_NAME":"HULIANWANG DIGUI-39","OBJECT_ID":"2025-159E","EPOCH":"2026-07-14T22:49:30.865152","CLASSIFICATION_TYPE":"U","MEAN_MOTION":13.24408842,"ECCENTRICITY":0.00018007,"INCLINATION":86.4936,"RA_OF_ASC_NODE":273.0134,"ARG_OF_PERICENTER":101.691,"MEAN_ANOMALY":258.4426,"EPHEMERIS_TYPE":0,"NORAD_CAT_ID":64960,"ELEMENT_SET_NO":999,"REV_AT_EPOCH":4680,"BSTAR":0.000071495563,"MEAN_MOTION_DOT":4.5e-7,"MEAN_MOTION_DDOT":0},{"OBJECT_NAME":"HULIANWANG DIGUI-40","OBJECT_ID":"2025-162A","EPOCH":"2026-07-14T23:34:49.740096","CLASSIFICATION_TYPE":"U","MEAN_MOTION":13.29327267,"ECCENTRICITY":0.00002971,"INCLINATION":49.9978,"RA_OF_ASC_NODE":166.242,"ARG_OF_PERICENTER":313.113,"MEAN_ANOMALY":46.9717,"EPHEMERIS_TYPE":0,"NORAD_CAT_ID":65043,"ELEMENT_SET_NO":999,"REV_AT_EPOCH":4704,"BSTAR":0.00000268332,"MEAN_MOTION_DOT":-0.00000123,"MEAN_MOTION_DDOT":0},{"OBJECT_NAME":"HULIANWANG DIGUI-41","OBJECT_ID":"2025-162B","EPOCH":"2026-07-14T21:34:33.926592","CLASSIFICATION_TYPE":"U","MEAN_MOTION":13.29326891,"ECCENTRICITY":0.00002677,"INCLINATION":49.9988,"RA_OF_ASC_NODE":166.4956,"ARG_OF_PERICENTER":321.3218,"MEAN_ANOMALY":38.7635,"EPHEMERIS_TYPE":0,"NORAD_CAT_ID":65044,"ELEMENT_SET_NO":999,"REV_AT_EPOCH":4704,"BSTAR":0.000023674209,"MEAN_MOTION_DOT":-0.00000113,"MEAN_MOTION_DDOT":0},{"OBJECT_NAME":"HULIANWANG DIGUI-42","OBJECT_ID":"2025-162C","EPOCH":"2026-07-14T23:10:42.055392","CLASSIFICATION_TYPE":"U","MEAN_MOTION":13.29327548,"ECCENTRICITY":0.00002845,"INCLINATION":49.9954,"RA_OF_ASC_NODE":166.086,"ARG_OF_PERICENTER":313.5359,"MEAN_ANOMALY":46.5489,"EPHEMERIS_TYPE":0,"NORAD_CAT_ID":65045,"ELEMENT_SET_NO":999,"REV_AT_EPOCH":4705,"BSTAR":0.000014795526,"MEAN_MOTION_DOT":-0.00000117,"MEAN_MOTION_DDOT":0},{"OBJECT_NAME":"HULIANWANG DIGUI-43","OBJECT_ID":"2025-162D","EPOCH":"2026-07-14T22:58:43.480416","CLASSIFICATION_TYPE":"U","MEAN_MOTION":13.29326159,"ECCENTRICITY":0.00003332,"INCLINATION":49.997,"RA_OF_ASC_NODE":166.0915,"ARG_OF_PERICENTER":310.6085,"MEAN_ANOMALY":49.4758,"EPHEMERIS_TYPE":0,"NORAD_CAT_ID":65046,"ELEMENT_SET_NO":999,"REV_AT_EPOCH":4705,"BSTAR":0.000015273493,"MEAN_MOTION_DOT":-0.00000117,"MEAN_MOTION_DDOT":0}]}
